CCSDS_OMM_VERS = 2.0
CREATION_DATE  = 
ORIGINATOR     = 

OBJECT_NAME    = STARLINK-36383
OBJECT_ID      = 2026-036U
CENTER_NAME    = EARTH
REF_FRAME      = TEME
TIME_SYSTEM    = UTC
MEAN_ELEMENT_THEORY = SGP/SGP4

EPOCH          = 2026-03-10T20:02:03.777216
MEAN_MOTION    = 15.82194680
ECCENTRICITY   = .00026589
INCLINATION    = 42.9987
RA_OF_ASC_NODE = 242.5978
ARG_OF_PERICENTER = 294.5528
MEAN_ANOMALY   = 65.5066

EPHEMERIS_TYPE = 0
CLASSIFICATION_TYPE = U
NORAD_CAT_ID   = 67922
ELEMENT_SET_NO = 999
REV_AT_EPOCH   = 385
BSTAR          = .29190758E-2
MEAN_MOTION_DOT = .669619E-2
MEAN_MOTION_DDOT = 0

CCSDS_OMM_VERS = 2.0
CREATION_DATE  = 
ORIGINATOR     = 

OBJECT_NAME    = STARLINK-36406
OBJECT_ID      = 2026-036V
CENTER_NAME    = EARTH
REF_FRAME      = TEME
TIME_SYSTEM    = UTC
MEAN_ELEMENT_THEORY = SGP/SGP4

EPOCH          = 2026-03-11T06:00:02.000160
MEAN_MOTION    = 15.67590621
ECCENTRICITY   = .00015661
INCLINATION    = 42.9995
RA_OF_ASC_NODE = 240.2663
ARG_OF_PERICENTER = 273.9341
MEAN_ANOMALY   = 208.5391

EPHEMERIS_TYPE = 0
CLASSIFICATION_TYPE = U
NORAD_CAT_ID   = 67923
ELEMENT_SET_NO = 999
REV_AT_EPOCH   = 389
BSTAR          = -.19707773E-1
MEAN_MOTION_DOT = -.1952945E-1
MEAN_MOTION_DDOT = 0

CCSDS_OMM_VERS = 2.0
CREATION_DATE  = 
ORIGINATOR     = 

OBJECT_NAME    = STARLINK-36714
OBJECT_ID      = 2026-036W
CENTER_NAME    = EARTH
REF_FRAME      = TEME
TIME_SYSTEM    = UTC
MEAN_ELEMENT_THEORY = SGP/SGP4

EPOCH          = 2026-03-10T18:28:59.111904
MEAN_MOTION    = 15.82161611
ECCENTRICITY   = .00027459
INCLINATION    = 42.9987
RA_OF_ASC_NODE = 242.9721
ARG_OF_PERICENTER = 304.5474
MEAN_ANOMALY   = 55.5138

EPHEMERIS_TYPE = 0
CLASSIFICATION_TYPE = U
NORAD_CAT_ID   = 67924
ELEMENT_SET_NO = 999
REV_AT_EPOCH   = 384
BSTAR          = .18330222E-2
MEAN_MOTION_DOT = .406904E-2
MEAN_MOTION_DDOT = 0

CCSDS_OMM_VERS = 2.0
CREATION_DATE  = 
ORIGINATOR     = 

OBJECT_NAME    = STARLINK-36726
OBJECT_ID      = 2026-036X
CENTER_NAME    = EARTH
REF_FRAME      = TEME
TIME_SYSTEM    = UTC
MEAN_ELEMENT_THEORY = SGP/SGP4

EPOCH          = 2026-03-10T19:59:54.714624
MEAN_MOTION    = 15.82458935
ECCENTRICITY   = .00027571
INCLINATION    = 42.9982
RA_OF_ASC_NODE = 242.5843
ARG_OF_PERICENTER = 319.3112
MEAN_ANOMALY   = 40.7554

EPHEMERIS_TYPE = 0
CLASSIFICATION_TYPE = U
NORAD_CAT_ID   = 67925
ELEMENT_SET_NO = 999
REV_AT_EPOCH   = 385
BSTAR          = .29005436E-2
MEAN_MOTION_DOT = .673958E-2
MEAN_MOTION_DDOT = 0

CCSDS_OMM_VERS = 2.0
CREATION_DATE  = 
ORIGINATOR     = 

OBJECT_NAME    = STARLINK-36758
OBJECT_ID      = 2026-036Y
CENTER_NAME    = EARTH
REF_FRAME      = TEME
TIME_SYSTEM    = UTC
MEAN_ELEMENT_THEORY = SGP/SGP4

EPOCH          = 2026-03-11T06:00:02.000160
MEAN_MOTION    = 15.78824984
ECCENTRICITY   = .00013915
INCLINATION    = 42.9996
RA_OF_ASC_NODE = 240.0205
ARG_OF_PERICENTER = 270.9736
MEAN_ANOMALY   = 309.6413

EPHEMERIS_TYPE = 0
CLASSIFICATION_TYPE = U
NORAD_CAT_ID   = 67926
ELEMENT_SET_NO = 999
REV_AT_EPOCH   = 389
BSTAR          = -.12212118E-1
MEAN_MOTION_DOT = -.1930177E-1
MEAN_MOTION_DDOT = 0

CCSDS_OMM_VERS = 2.0
CREATION_DATE  = 
ORIGINATOR     = 

OBJECT_NAME    = STARLINK-36728
OBJECT_ID      = 2026-036Z
CENTER_NAME    = EARTH
REF_FRAME      = TEME
TIME_SYSTEM    = UTC
MEAN_ELEMENT_THEORY = SGP/SGP4

EPOCH          = 2026-03-10T22:57:23.385024
MEAN_MOTION    = 15.82167477
ECCENTRICITY   = .00019456
INCLINATION    = 42.9981
RA_OF_ASC_NODE = 241.7855
ARG_OF_PERICENTER = 264.8471
MEAN_ANOMALY   = 95.2178

EPHEMERIS_TYPE = 0
CLASSIFICATION_TYPE = U
NORAD_CAT_ID   = 67927
ELEMENT_SET_NO = 999
REV_AT_EPOCH   = 387
BSTAR          = .20854136E-2
MEAN_MOTION_DOT = .466366E-2
MEAN_MOTION_DDOT = 0

CCSDS_OMM_VERS = 2.0
CREATION_DATE  = 
ORIGINATOR     = 

OBJECT_NAME    = STARLINK-36771
OBJECT_ID      = 2026-036AA
CENTER_NAME    = EARTH
REF_FRAME      = TEME
TIME_SYSTEM    = UTC
MEAN_ELEMENT_THEORY = SGP/SGP4

EPOCH          = 2026-03-10T21:27:34.070976
MEAN_MOTION    = 15.82095351
ECCENTRICITY   = .0002565
INCLINATION    = 42.9988
RA_OF_ASC_NODE = 242.1792
ARG_OF_PERICENTER = 233.9305
MEAN_ANOMALY   = 126.1329

EPHEMERIS_TYPE = 0
CLASSIFICATION_TYPE = U
NORAD_CAT_ID   = 67928
ELEMENT_SET_NO = 999
REV_AT_EPOCH   = 386
BSTAR          = .10778E-2
MEAN_MOTION_DOT = .233521E-2
MEAN_MOTION_DDOT = 0

CCSDS_OMM_VERS = 2.0
CREATION_DATE  = 
ORIGINATOR     = 

OBJECT_NAME    = STARLINK-36809
OBJECT_ID      = 2026-036AB
CENTER_NAME    = EARTH
REF_FRAME      = TEME
TIME_SYSTEM    = UTC
MEAN_ELEMENT_THEORY = SGP/SGP4

EPOCH          = 2026-03-10T22:56:20.138496
MEAN_MOTION    = 15.82048131
ECCENTRICITY   = .00022409
INCLINATION    = 42.9986
RA_OF_ASC_NODE = 241.7797
ARG_OF_PERICENTER = 285.1196
MEAN_ANOMALY   = 74.9428

EPHEMERIS_TYPE = 0
CLASSIFICATION_TYPE = U
NORAD_CAT_ID   = 67929
ELEMENT_SET_NO = 999
REV_AT_EPOCH   = 387
BSTAR          = .83285356E-3
MEAN_MOTION_DOT = .178779E-2
MEAN_MOTION_DDOT = 0

CCSDS_OMM_VERS = 2.0
CREATION_DATE  = 
ORIGINATOR     = 

OBJECT_NAME    = STARLINK-36865
OBJECT_ID      = 2026-036AC
CENTER_NAME    = EARTH
REF_FRAME      = TEME
TIME_SYSTEM    = UTC
MEAN_ELEMENT_THEORY = SGP/SGP4

EPOCH          = 2026-03-10T22:54:09.809280
MEAN_MOTION    = 15.82136872
ECCENTRICITY   = .00018751
INCLINATION    = 42.9982
RA_OF_ASC_NODE = 241.7665
ARG_OF_PERICENTER = 269.9050
MEAN_ANOMALY   = 90.1607

EPHEMERIS_TYPE = 0
CLASSIFICATION_TYPE = U
NORAD_CAT_ID   = 67930
ELEMENT_SET_NO = 999
REV_AT_EPOCH   = 387
BSTAR          = .15057777E-2
MEAN_MOTION_DOT = .330812E-2
MEAN_MOTION_DDOT = 0

CCSDS_OMM_VERS = 2.0
CREATION_DATE  = 
ORIGINATOR     = 

OBJECT_NAME    = STARLINK-36781
OBJECT_ID      = 2026-036AD
CENTER_NAME    = EARTH
REF_FRAME      = TEME
TIME_SYSTEM    = UTC
MEAN_ELEMENT_THEORY = SGP/SGP4

EPOCH          = 2026-03-10T19:53:25.603584
MEAN_MOTION    = 15.82195121
ECCENTRICITY   = .0001713
INCLINATION    = 42.9984
RA_OF_ASC_NODE = 242.5482
ARG_OF_PERICENTER = 315.5401
MEAN_ANOMALY   = 44.5333

EPHEMERIS_TYPE = 0
CLASSIFICATION_TYPE = U
NORAD_CAT_ID   = 67931
ELEMENT_SET_NO = 999
REV_AT_EPOCH   = 385
BSTAR          = .22836605E-2
MEAN_MOTION_DOT = .514305E-2
MEAN_MOTION_DDOT = 0

CCSDS_OMM_VERS = 2.0
CREATION_DATE  = 
ORIGINATOR     = 

OBJECT_NAME    = STARLINK-36301
OBJECT_ID      = 2026-037A
CENTER_NAME    = EARTH
REF_FRAME      = TEME
TIME_SYSTEM    = UTC
MEAN_ELEMENT_THEORY = SGP/SGP4

EPOCH          = 2026-03-11T06:00:02.000160
MEAN_MOTION    = 15.81951289
ECCENTRICITY   = .00017246
INCLINATION    = 42.9980
RA_OF_ASC_NODE = 189.0149
ARG_OF_PERICENTER = 255.9425
MEAN_ANOMALY   = 273.0417

EPHEMERIS_TYPE = 0
CLASSIFICATION_TYPE = U
NORAD_CAT_ID   = 67932
ELEMENT_SET_NO = 999
REV_AT_EPOCH   = 336
BSTAR          = .51678301E-3
MEAN_MOTION_DOT = .109335E-2
MEAN_MOTION_DDOT = 0

CCSDS_OMM_VERS = 2.0
CREATION_DATE  = 
ORIGINATOR     = 

OBJECT_NAME    = STARLINK-36852
OBJECT_ID      = 2026-037B
CENTER_NAME    = EARTH
REF_FRAME      = TEME
TIME_SYSTEM    = UTC
MEAN_ELEMENT_THEORY = SGP/SGP4

EPOCH          = 2026-03-11T06:00:02.000160
MEAN_MOTION    = 15.81955367
ECCENTRICITY   = .00013099
INCLINATION    = 42.9982
RA_OF_ASC_NODE = 189.0042
ARG_OF_PERICENTER = 260.6027
MEAN_ANOMALY   = 272.6520

EPHEMERIS_TYPE = 0
CLASSIFICATION_TYPE = U
NORAD_CAT_ID   = 67933
ELEMENT_SET_NO = 999
REV_AT_EPOCH   = 344
BSTAR          = .50853368E-3
MEAN_MOTION_DOT = .107577E-2
MEAN_MOTION_DDOT = 0

