STARLINK-36383          
1 67922U 26036U   26069.83476594  .00669619  00000+0  29191-2 0  9992
2 67922  42.9987 242.5978 0002658 294.5528  65.5066 15.82194680  3858
STARLINK-36406          
1 67923U 26036V   26070.25002315 -.01952945  00000+0 -19708-1 0  9999
2 67923  42.9995 240.2663 0001566 273.9341 208.5391 15.67590621  3897
STARLINK-36714          
1 67924U 26036W   26069.77012861  .00406904  00000+0  18330-2 0  9999
2 67924  42.9987 242.9721 0002745 304.5474  55.5138 15.82161611  3845
STARLINK-36726          
1 67925U 26036X   26069.83327216  .00673958  00000+0  29005-2 0  9996
2 67925  42.9982 242.5843 0002757 319.3112  40.7554 15.82458935  3855
STARLINK-36758          
1 67926U 26036Y   26070.25002315 -.01930177  00000+0 -12212-1 0  9998
2 67926  42.9996 240.0205 0001391 270.9736 309.6413 15.78824984  3894
STARLINK-36728          
1 67927U 26036Z   26069.95652066  .00466366  00000+0  20854-2 0  9991
2 67927  42.9981 241.7855 0001945 264.8471  95.2178 15.82167477  3877
STARLINK-36771          
1 67928U 26036AA  26069.89414434  .00233521  00000+0  10778-2 0  9999
2 67928  42.9988 242.1792 0002565 233.9305 126.1329 15.82095351  3864
STARLINK-36809          
1 67929U 26036AB  26069.95578864  .00178779  00000+0  83285-3 0  9992
2 67929  42.9986 241.7797 0002240 285.1196  74.9428 15.82048131  3875
STARLINK-36865          
1 67930U 26036AC  26069.95428020  .00330812  00000+0  15058-2 0  9992
2 67930  42.9982 241.7665 0001875 269.9050  90.1607 15.82136872  3878
STARLINK-36781          
1 67931U 26036AD  26069.82876856  .00514305  00000+0  22837-2 0  9997
2 67931  42.9984 242.5482 0001713 315.5401  44.5333 15.82195121  3855
STARLINK-36301          
1 67932U 26037A   26070.25002315  .00109335  00000+0  51678-3 0  9998
2 67932  42.9980 189.0149 0001724 255.9425 273.0417 15.81951289  3364
STARLINK-36852          
1 67933U 26037B   26070.25002315  .00107577  00000+0  50853-3 0  9999
2 67933  42.9982 189.0042 0001309 260.6027 272.6520 15.81955367  3449
